NORAD_CAT_ID,OBJECT_NAME,OBJECT_TYPE,EPOCH,MEAN_MOTION,ECCENTRICITY,INCLINATION,RA_OF_ASC_NODE,ARG_OF_PERICENTER,MEAN_ANOMALY,BSTAR,MEAN_MOTION_DOT,MEAN_MOTION_DDOT,TLE_LINE0,TLE_LINE1,TLE_LINE2,SEMIMAJOR_AXIS,PERIOD,APOGEE,PERIGEE,DECAYED
55633.0,STARLINK-5498,PAYLOAD,2024-02-17 19:22:22,14.98330403,0.0002657,69.9997,297.6828,266.4715,93.614,9.359e-06,1.9e-07,0.0,0 STARLINK-5498,1 55633U 23021F   24048.80720571  .00000019  00000-0  93590-5 0  9999,2 55633  69.9997 297.6828 0002657 266.4715  93.6140 14.98330403 55521,6950.192,96.107,573.903,570.21,0.0
55633.0,STARLINK-5498,PAYLOAD,2024-02-17 20:58:30,14.98329639,0.0002676,69.9998,297.5145,266.1784,93.9069,1.4313e-07,-9.1e-07,0.0,0 STARLINK-5498,1 55633U 23021F   24048.87396636 -.00000091  00000-0  14313-6 0  9995,2 55633  69.9998 297.5145 0002676 266.1784  93.9069 14.98329639 55833,6950.194,96.107,573.919,570.199,0.0
55633.0,STARLINK-5498,PAYLOAD,2024-02-18 09:47:34,14.98355425,0.0002582,69.9999,296.1672,268.489,91.5973,-0.00040838,-4.965e-05,0.0,0 STARLINK-5498,1 55633U 23021F   24049.40803764 -.00004965  00000-0 -40838-3 0  9993,2 55633  69.9999 296.1672 0002582 268.4890  91.5973 14.98355425 55619,6950.114,96.105,573.774,570.185,0.0
55633.0,STARLINK-5498,PAYLOAD,2024-02-18 19:24:23,14.98329093,0.0002804,69.9996,295.1571,269.7775,90.3063,2.3502e-05,1.87e-06,0.0,0 STARLINK-5498,1 55633U 23021F   24049.80860476  .00000187  00000-0  23502-4 0  9990,2 55633  69.9996 295.1571 0002804 269.7775  90.3063 14.98329093 55671,6950.196,96.107,574.01,570.112,0.0
55633.0,STARLINK-5498,PAYLOAD,2024-02-18 22:36:39,14.98332568,0.0002703,69.9995,294.8203,265.155,94.93,2.8477e-05,2.47e-06,0.0,0 STARLINK-5498,1 55633U 23021F   24049.94212205  .00000247  00000-0  28477-4 0  9999,2 55633  69.9995 294.8203 0002703 265.1550  94.9300 14.98332568 55997,6950.185,96.107,573.929,570.171,0.0
55633.0,STARLINK-5498,PAYLOAD,2024-02-19 09:49:36,14.98329551,0.000279,69.9992,293.6413,269.1137,90.9703,-9.7807e-05,-1.26e-05,0.0,0 STARLINK-5498,1 55633U 23021F   24050.40944673 -.00001260  00000-0 -97807-4 0  9994,2 55633  69.9992 293.6413 0002790 269.1137  90.9703 14.98329551 56065,6950.194,96.107,573.998,570.12,0.0
55633.0,STARLINK-5498,PAYLOAD,2024-02-19 19:26:24,14.9832249,0.0002853,69.9991,292.6313,268.6592,91.424,2.2814e-06,-6.6e-07,0.0,0 STARLINK-5498,1 55633U 23021F   24050.81000940 -.00000066  00000-0  22814-5 0  9998,2 55633  69.9991 292.6313 0002853 268.6592  91.4240 14.98322490 55821,6950.216,96.107,574.064,570.098,0.0
55633.0,STARLINK-5498,PAYLOAD,2024-02-19 22:38:41,14.98322003,0.0002668,69.9997,292.295,263.0463,97.0392,-5.3661e-05,-7.33e-06,0.0,0 STARLINK-5498,1 55633U 23021F   24050.94353173 -.00000733  00000-0 -53661-4 0  9996,2 55633  69.9997 292.2950 0002668 263.0463  97.0392 14.98322003 56146,6950.218,96.108,573.937,570.228,0.0
55633.0,STARLINK-5498,PAYLOAD,2024-02-20 09:51:37,14.98329696,0.0002604,69.9998,291.1167,271.0462,89.0399,-8.0504e-07,-1.03e-06,0.0,0 STARLINK-5498,1 55633U 23021F   24051.41084750 -.00000103  00000-0 -80504-6 0  9990,2 55633  69.9998 291.1167 0002604 271.0462  89.0399 14.98329696 56214,6950.194,96.107,573.869,570.249,0.0
55633.0,STARLINK-5498,PAYLOAD,2024-02-20 19:28:25,14.98333731,0.0002877,69.9994,290.1067,269.8848,90.1981,8.6357e-05,9.38e-06,0.0,0 STARLINK-5498,1 55633U 23021F   24051.81140130  .00000938  00000-0  86357-4 0  9993,2 55633  69.9994 290.1067 0002877 269.8848  90.1981 14.98333731 55970,6950.181,96.107,574.046,570.047,0.0
55633.0,STARLINK-5498,PAYLOAD,2024-02-20 22:40:41,14.98330827,0.0002601,69.9992,289.7701,261.825,98.2614,0.00015441,1.75e-05,0.0,0 STARLINK-5498,1 55633U 23021F   24051.94492084  .00001750  00000-0  15441-3 0  9993,2 55633  69.9992 289.7701 0002601 261.8250  98.2614 14.98330827 56292,6950.19,96.107,573.863,570.248,0.0
55633.0,STARLINK-5498,PAYLOAD,2024-02-21 01:52:57,14.98333491,0.0002796,69.9991,289.4335,267.0706,93.0133,0.00015753,1.787e-05,0.0,0 STARLINK-5498,1 55633U 23021F   24052.07843889  .00001787  00000-0  15753-3 0  9997,2 55633  69.9991 289.4335 0002796 267.0706  93.0133 14.98333491 56312,6950.182,96.107,573.99,570.104,0.0
55633.0,STARLINK-5498,PAYLOAD,2024-02-21 19:30:26,14.98326482,0.0002893,69.999,287.5818,270.2269,89.8559,7.0232e-05,7.45e-06,0.0,0 STARLINK-5498,1 55633U 23021F   24052.81280457  .00000745  00000-0  70232-4 0  9992,2 55633  69.9990 287.5818 0002893 270.2269  89.8559 14.98326482 56120,6950.204,96.107,574.079,570.058,0.0
55633.0,STARLINK-5498,PAYLOAD,2024-02-21 22:42:42,14.98329432,0.0002653,69.9992,287.2452,265.8131,94.2725,4.6119e-05,4.57e-06,0.0,0 STARLINK-5498,1 55633U 23021F   24052.94632363  .00000457  00000-0  46119-4 0  9990,2 55633  69.9992 287.2452 0002653 265.8131  94.2725 14.98329432 56443,6950.195,96.107,573.904,570.216,0.0
55633.0,STARLINK-5498,PAYLOAD,2024-02-22 08:19:31,14.98309354,0.0002841,69.9991,286.2356,270.197,89.8863,0.00036717,4.288e-05,0.0,0 STARLINK-5498,1 55633U 23021F   24053.34689016  .00004288  00000-0  36717-3 0  9990,2 55633  69.9991 286.2356 0002841 270.1970  89.8863 14.98309354 56201,6950.257,96.108,574.096,570.147,0.0
55633.0,STARLINK-5498,PAYLOAD,2024-02-22 19:32:27,14.9832684,0.0003074,69.9989,285.0576,269.445,90.6356,9.3457e-05,1.022e-05,0.0,0 STARLINK-5498,1 55633U 23021F   24053.81420337  .00001022  00000-0  93457-4 0  9999,2 55633  69.9989 285.0576 0003074 269.4450  90.6356 14.98326840 56275,6950.203,96.107,574.204,569.931,0.0
55633.0,STARLINK-5498,PAYLOAD,2024-02-22 22:44:43,14.98336329,0.0002858,69.9986,284.7206,264.4149,95.6684,-5.8933e-05,-7.96e-06,0.0,0 STARLINK-5498,1 55633U 23021F   24053.94772099 -.00000796  00000-0 -58933-4 0  9997,2 55633  69.9986 284.7206 0002858 264.4149  95.6684 14.98336329 56594,6950.173,96.107,574.025,570.052,0.0
55633.0,STARLINK-5498,PAYLOAD,2024-02-23 08:21:31,14.98337466,0.0002856,69.9986,283.7108,269.3886,90.6946,-8.564e-05,-1.115e-05,0.0,0 STARLINK-5498,1 55633U 23021F   24054.34828022 -.00001115  00000-0 -85640-4 0  9991,2 55633  69.9986 283.7108 0002856 269.3886  90.6946 14.98337466 56357,6950.17,96.107,574.02,570.05,0.0
55633.0,STARLINK-5498,PAYLOAD,2024-02-23 22:46:44,14.98327616,0.0002961,69.9988,282.1957,269.7896,90.2924,4.1356e-05,4e-06,0.0,0 STARLINK-5498,1 55633U 23021F   24054.94912218  .00000400  00000-0  41356-4 0  9998,2 55633  69.9988 282.1957 0002961 269.7896  90.2924 14.98327616 56747,6950.2,96.107,574.123,570.007,0.0
55633.0,STARLINK-5498,PAYLOAD,2024-02-24 08:23:32,14.98344004,0.0002949,69.9988,281.1855,272.3114,87.7708,-0.00023171,-2.858e-05,0.0,0 STARLINK-5498,1 55633U 23021F   24055.34967763 -.00002858  00000-0 -23171-3 0  9993,2 55633  69.9988 281.1855 0002949 272.3114  87.7708 14.98344004 56507,6950.15,96.106,574.064,569.965,0.0
55633.0,STARLINK-5498,PAYLOAD,2024-02-24 21:12:36,14.98329976,0.0002935,69.9985,279.8387,266.7277,93.3546,1.457e-06,-7.6e-07,0.0,0 STARLINK-5498,1 55633U 23021F   24055.88376126 -.00000076  00000-0  14570-5 0  9993,2 55633  69.9985 279.8387 0002935 266.7277  93.3546 14.98329976 56582,6950.193,96.107,574.098,570.018,0.0
55633.0,STARLINK-5498,PAYLOAD,2024-02-25 14:50:05,14.9833268,0.0002987,69.9983,277.9869,270.1715,89.9102,5.9671e-05,6.19e-06,0.0,0 STARLINK-5498,1 55633U 23021F   24056.61811685  .00000619  00000-0  59671-4 0  9991,2 55633  69.9983 277.9869 0002987 270.1715  89.9102 14.98332680 56997,6950.185,96.107,574.126,569.974,0.0
55633.0,STARLINK-5498,PAYLOAD,2024-02-25 22:50:45,14.98336396,0.0003007,69.9983,277.145,269.8978,90.1836,6.7534e-05,7.13e-06,0.0,0 STARLINK-5498,1 55633U 23021F   24056.95191335  .00000713  00000-0  67534-4 0  9993,2 55633  69.9983 277.1450 0003007 269.8978  90.1836 14.98336396 57048,6950.173,96.107,574.128,569.948,0.0
55633.0,STARLINK-5498,PAYLOAD,2024-02-26 00:26:53,14.9833731,0.0003003,69.9983,276.9767,269.9164,90.1651,7.6488e-05,8.2e-06,0.0,0 STARLINK-5498,1 55633U 23021F   24057.01867227  .00000820  00000-0  76488-4 0  9998,2 55633  69.9983 276.9767 0003003 269.9164  90.1651 14.98337310 56759,6950.17,96.107,574.122,569.948,0.0
55633.0,STARLINK-5498,PAYLOAD,2024-02-26 19:40:30,14.98328139,0.0002632,69.9995,274.9571,263.1441,96.9419,-1.2642e-05,-2.44e-06,0.0,0 STARLINK-5498,1 55633U 23021F   24057.81980035 -.00000244  00000-0 -12642-4 0  9993,2 55633  69.9995 274.9571 0002632 263.1441  96.9419 14.98328139 56872,6950.199,96.107,573.893,570.234,0.0
55633.0,STARLINK-5498,PAYLOAD,2024-02-26 22:52:47,14.98326554,0.0002937,69.9988,274.6209,269.0368,91.0455,-0.00010374,-1.33e-05,0.0,0 STARLINK-5498,1 55633U 23021F   24057.95332446 -.00001330  00000-0 -10374-3 0  9991,2 55633  69.9988 274.6209 0002937 269.0368  91.0455 14.98326554 57191,6950.204,96.107,574.11,570.027,0.0
55633.0,STARLINK-5498,PAYLOAD,2024-02-27 14:54:07,14.98331618,0.0002912,69.9985,272.9366,270.164,89.9185,-3.6265e-05,-5.26e-06,0.0,0 STARLINK-5498,1 55633U 23021F   24058.62092016 -.00000526  00000-0 -36265-4 0  9996,2 55633  69.9985 272.9366 0002912 270.1640  89.9185 14.98331618 57296,6950.188,96.107,574.077,570.029,0.0
55633.0,STARLINK-5498,PAYLOAD,2024-02-27 21:18:39,14.98332587,0.0002901,69.9986,272.2641,269.4598,90.6228,-3.0295e-05,-4.54e-06,0.0,0 STARLINK-5498,1 55633U 23021F   24058.88795914 -.00000454  00000-0 -30295-4 0  9998,2 55633  69.9986 272.2641 0002901 269.4598  90.6228 14.98332587 57335,6950.185,96.107,574.066,570.034,0.0
55633.0,STARLINK-5498,PAYLOAD,2024-02-28 00:30:55,14.98332789,0.0002901,69.9985,271.9273,269.7139,90.3688,-2.5574e-05,-3.98e-06,0.0,0 STARLINK-5498,1 55633U 23021F   24059.02147874 -.00000398  00000-0 -25574-4 0  9992,2 55633  69.9985 271.9273 0002901 269.7139  90.3688 14.98332789 57055,6950.184,96.107,574.066,570.033,0.0
55633.0,STARLINK-5498,PAYLOAD,2024-02-28 14:56:08,14.98327107,0.0003027,69.9982,270.4116,273.6,86.4813,7.4051e-05,7.91e-06,0.0,0 STARLINK-5498,1 55633U 23021F   24059.62231944  .00000791  00000-0  74051-4 0  9999,2 55633  69.9982 270.4116 0003027 273.6000  86.4813 14.98327107 57440,6950.202,96.107,574.171,569.963,0.0
